start=new Date('2022-04-07T00:00:00.000Z').valueOf();
sats=[{"TLE_LINE1":"1 46327U 20062C   22096.91124916 -.00001667  00000-0 -93059-4 0  9996","TIME_SYSTEM":"UTC","PERIOD":"95.592","APOAPSIS":"548.438","ECCENTRICITY":"0.00017440","OBJECT_NAME":"STARLINK-1673","OBJECT_TYPE":"PAYLOAD","EPOCH":"2022-04-06T21:52:11.927424","MEAN_MOTION_DDOT":"0.0000000000000","ARG_OF_PERICENTER":"74.8685","CLASSIFICATION_TYPE":"U","FILE":"3391320","OBJECT_ID":"2020-062C","INCLINATION":"53.0544","PERIAPSIS":"546.022","MEAN_ANOMALY":"285.2497","RA_OF_ASC_NODE":"328.6228","REV_AT_EPOCH":"8835","GP_ID":"200622852","MEAN_MOTION":"15.06394715","DECAY_DATE":null,"COUNTRY_CODE":"US","SEMIMAJOR_AXIS":"6925.365","MEAN_MOTION_DOT":"-0.00001667","RCS_SIZE":"LARGE","SITE":"AFETR","EPHEMERIS_TYPE":"0","MEAN_ELEMENT_THEORY":"SGP4","CENTER_NAME":"EARTH","LAUNCH_DATE":"2020-09-03","ELEMENT_SET_NO":"999","TLE_LINE2":"2 46327  53.0544 328.6228 0001744  74.8685 285.2497 15.06394715 88352","BSTAR":"-0.00009305900000","NORAD_CAT_ID":"46327","REF_FRAME":"TEME"},{"OBJECT_TYPE":"PAYLOAD","EPOCH":"2022-04-06T21:22:59.699136","ARG_OF_PERICENTER":"48.4465","MEAN_MOTION_DDOT":"0.0000000000000","FILE":"3391320","CLASSIFICATION_TYPE":"U","OBJECT_ID":"2020-062D","INCLINATION":"53.0546","PERIAPSIS":"545.938","MEAN_ANOMALY":"311.6680","RA_OF_ASC_NODE":"308.7061","TLE_LINE1":"1 46328U 20062D   22096.89096874  .00010395  00000-0  71561-3 0  9994","TIME_SYSTEM":"UTC","PERIOD":"95.592","APOAPSIS":"548.459","ECCENTRICITY":"0.00018200","OBJECT_NAME":"STARLINK-1686","MEAN_MOTION_DOT":"0.00010395","RCS_SIZE":"LARGE","EPHEMERIS_TYPE":"0","SITE":"AFETR","MEAN_ELEMENT_THEORY":"SGP4","CENTER_NAME":"EARTH","LAUNCH_DATE":"2020-09-03","ELEMENT_SET_NO":"999","TLE_LINE2":"2 46328  53.0546 308.7061 0001820  48.4465 311.6680 15.06404954 88633","BSTAR":"0.00071561000000","NORAD_CAT_ID":"46328","REF_FRAME":"TEME","REV_AT_EPOCH":"8863","GP_ID":"200623104","MEAN_MOTION":"15.06404954","DECAY_DATE":null,"COUNTRY_CODE":"US","SEMIMAJOR_AXIS":"6925.333"},{"REV_AT_EPOCH":"8862","GP_ID":"200623854","MEAN_MOTION":"15.06391480","DECAY_DATE":null,"COUNTRY_CODE":"US","SEMIMAJOR_AXIS":"6925.375","MEAN_MOTION_DOT":"0.00003651","RCS_SIZE":"LARGE","MEAN_ELEMENT_THEORY":"SGP4","SITE":"AFETR","EPHEMERIS_TYPE":"0","LAUNCH_DATE":"2020-09-03","CENTER_NAME":"EARTH","TLE_LINE2":"2 46329  53.0542 308.8465 0001747  55.5930 304.5224 15.06391480 88626","ELEMENT_SET_NO":"999","BSTAR":"0.00026391000000","NORAD_CAT_ID":"46329","REF_FRAME":"TEME","TLE_LINE1":"1 46329U 20062E   22096.85779797  .00003651  00000-0  26391-3 0  9991","TIME_SYSTEM":"UTC","APOAPSIS":"548.450","PERIOD":"95.593","ECCENTRICITY":"0.00017470","OBJECT_NAME":"STARLINK-1695","EPOCH":"2022-04-06T20:35:13.744608","OBJECT_TYPE":"PAYLOAD","MEAN_MOTION_DDOT":"0.0000000000000","ARG_OF_PERICENTER":"55.5930","CLASSIFICATION_TYPE":"U","FILE":"3391320","OBJECT_ID":"2020-062E","INCLINATION":"53.0542","RA_OF_ASC_NODE":"308.8465","PERIAPSIS":"546.030","MEAN_ANOMALY":"304.5224"},{"OBJECT_TYPE":"PAYLOAD","EPOCH":"2022-04-06T20:19:17.945472","ARG_OF_PERICENTER":"66.4128","MEAN_MOTION_DDOT":"0.0000000000000","CLASSIFICATION_TYPE":"U","FILE":"3391320","OBJECT_ID":"2020-062F","INCLINATION":"53.0542","MEAN_ANOMALY":"293.7019","PERIAPSIS":"546.184","RA_OF_ASC_NODE":"308.8922","TLE_LINE1":"1 46330U 20062F   22096.84673548  .00000192  00000-0  31798-4 0  9994","TIME_SYSTEM":"UTC","PERIOD":"95.592","APOAPSIS":"548.258","ECCENTRICITY":"0.00014970","OBJECT_NAME":"STARLINK-1710","MEAN_MOTION_DOT":"0.00000192","RCS_SIZE":"LARGE","EPHEMERIS_TYPE":"0","SITE":"AFETR","MEAN_ELEMENT_THEORY":"SGP4","CENTER_NAME":"EARTH","LAUNCH_DATE":"2020-09-03","ELEMENT_SET_NO":"999","TLE_LINE2":"2 46330  53.0542 308.8922 0001497  66.4128 293.7019 15.06397509 88638","BSTAR":"0.00003179800000","NORAD_CAT_ID":"46330","REF_FRAME":"TEME","REV_AT_EPOCH":"8863","GP_ID":"200622602","MEAN_MOTION":"15.06397509","DECAY_DATE":null,"COUNTRY_CODE":"US","SEMIMAJOR_AXIS":"6925.356"},{"FILE":"3391023","CLASSIFICATION_TYPE":"U","OBJECT_ID":"2020-062G","INCLINATION":"53.0536","MEAN_ANOMALY":"293.6355","PERIAPSIS":"546.057","RA_OF_ASC_NODE":"328.7469","OBJECT_TYPE":"PAYLOAD","EPOCH":"2022-04-06T21:09:43.602624","ARG_OF_PERICENTER":"66.4811","MEAN_MOTION_DDOT":"0.0000000000000","ECCENTRICITY":"0.00016840","OBJECT_NAME":"STARLINK-1719","TLE_LINE1":"1 46331U 20062G   22096.88175466 -.00000017  00000-0  17746-4 0  9999","TIME_SYSTEM":"UTC","PERIOD":"95.592","APOAPSIS":"548.389","CENTER_NAME":"EARTH","LAUNCH_DATE":"2020-09-03","ELEMENT_SET_NO":"999","TLE_LINE2":"2 46331  53.0536 328.7469 0001684  66.4811 293.6355 15.06396958 88534","BSTAR":"0.00001774600000","REF_FRAME":"TEME","NORAD_CAT_ID":"46331","MEAN_MOTION_DOT":"-0.00000017","RCS_SIZE":"LARGE","SITE":"AFETR","EPHEMERIS_TYPE":"0","MEAN_ELEMENT_THEORY":"SGP4","DECAY_DATE":null,"COUNTRY_CODE":"US","SEMIMAJOR_AXIS":"6925.358","REV_AT_EPOCH":"8853","GP_ID":"200596218","MEAN_MOTION":"15.06396958"},{"RCS_SIZE":"LARGE","MEAN_ELEMENT_THEORY":"SGP4","EPHEMERIS_TYPE":"0","SITE":"AFETR","MEAN_MOTION_DOT":"0.00020002","BSTAR":"0.00135760000000","REF_FRAME":"TEME","NORAD_CAT_ID":"46332","LAUNCH_DATE":"2020-09-03","CENTER_NAME":"EARTH","TLE_LINE2":"2 46332  53.0555 328.6983 0001784  67.1155 293.0022 15.06407285 88357","ELEMENT_SET_NO":"999","MEAN_MOTION":"15.06407285","REV_AT_EPOCH":"8835","GP_ID":"200623604","SEMIMAJOR_AXIS":"6925.326","DECAY_DATE":null,"COUNTRY_CODE":"US","ARG_OF_PERICENTER":"67.1155","MEAN_MOTION_DDOT":"0.0000000000000","EPOCH":"2022-04-06T21:25:38.909280","OBJECT_TYPE":"PAYLOAD","INCLINATION":"53.0555","RA_OF_ASC_NODE":"328.6983","MEAN_ANOMALY":"293.0022","PERIAPSIS":"545.956","FILE":"3391320","CLASSIFICATION_TYPE":"U","OBJECT_ID":"2020-062H","TIME_SYSTEM":"UTC","APOAPSIS":"548.427","PERIOD":"95.592","TLE_LINE1":"1 46332U 20062H   22096.89281145  .00020002  00000-0  13576-2 0  9993","ECCENTRICITY":"0.00017840","OBJECT_NAME":"STARLINK-1721"},{"TIME_SYSTEM":"UTC","PERIOD":"95.591","APOAPSIS":"547.991","TLE_LINE1":"1 46333U 20062J   22096.90754699  .00003123  00000-0  22836-3 0  9990","ECCENTRICITY":"0.00011960","OBJECT_NAME":"STARLINK-1723","MEAN_MOTION_DDOT":"0.0000000000000","ARG_OF_PERICENTER":"99.7217","OBJECT_TYPE":"PAYLOAD","EPOCH":"2022-04-06T21:46:52.059936","INCLINATION":"53.0547","MEAN_ANOMALY":"260.3907","PERIAPSIS":"546.334","RA_OF_ASC_NODE":"328.6348","FILE":"3391320","CLASSIFICATION_TYPE":"U","OBJECT_ID":"2020-062J","MEAN_MOTION":"15.06416650","REV_AT_EPOCH":"8835","GP_ID":"200623355","SEMIMAJOR_AXIS":"6925.298","DECAY_DATE":null,"COUNTRY_CODE":"US","RCS_SIZE":"LARGE","EPHEMERIS_TYPE":"0","SITE":"AFETR","MEAN_ELEMENT_THEORY":"SGP4","MEAN_MOTION_DOT":"0.00003123","BSTAR":"0.00022836000000","REF_FRAME":"TEME","NORAD_CAT_ID":"46333","CENTER_NAME":"EARTH","LAUNCH_DATE":"2020-09-03","ELEMENT_SET_NO":"999","TLE_LINE2":"2 46333  53.0547 328.6348 0001196  99.7217 260.3907 15.06416650 88356"},{"EPOCH":"2022-04-06T21:11:01.150944","OBJECT_TYPE":"PAYLOAD","ARG_OF_PERICENTER":"55.8924","MEAN_MOTION_DDOT":"0.0000000000000","FILE":"3391320","CLASSIFICATION_TYPE":"U","OBJECT_ID":"2020-062K","INCLINATION":"53.0546","RA_OF_ASC_NODE":"308.7302","PERIAPSIS":"546.102","MEAN_ANOMALY":"304.2220","TLE_LINE1":"1 46334U 20062K   22096.88265221  .00008677  00000-0  60080-3 0  9998","TIME_SYSTEM":"UTC","APOAPSIS":"548.360","PERIOD":"95.592","ECCENTRICITY":"0.00016300","OBJECT_NAME":"STARLINK-1725","MEAN_MOTION_DOT":"0.00008677","RCS_SIZE":"LARGE","MEAN_ELEMENT_THEORY":"SGP4","EPHEMERIS_TYPE":"0","SITE":"AFETR","LAUNCH_DATE":"2020-09-03","CENTER_NAME":"EARTH","TLE_LINE2":"2 46334  53.0546 308.7302 0001630  55.8924 304.2220 15.06394384 88632","ELEMENT_SET_NO":"999","BSTAR":"0.00060080000000","REF_FRAME":"TEME","NORAD_CAT_ID":"46334","REV_AT_EPOCH":"8863","GP_ID":"200622103","MEAN_MOTION":"15.06394384","DECAY_DATE":null,"COUNTRY_CODE":"US","SEMIMAJOR_AXIS":"6925.366"},{"GP_ID":"200622853","REV_AT_EPOCH":"8835","MEAN_MOTION":"15.06406173","COUNTRY_CODE":"US","DECAY_DATE":null,"SEMIMAJOR_AXIS":"6925.330","MEAN_MOTION_DOT":"0.00012426","EPHEMERIS_TYPE":"0","SITE":"AFETR","MEAN_ELEMENT_THEORY":"SGP4","RCS_SIZE":"LARGE","ELEMENT_SET_NO":"999","TLE_LINE2":"2 46335  53.0563 328.7992 0001609  59.4081 300.7066 15.06406173 88357","CENTER_NAME":"EARTH","LAUNCH_DATE":"2020-09-03","NORAD_CAT_ID":"46335","REF_FRAME":"TEME","BSTAR":"0.00085148000000","TLE_LINE1":"1 46335U 20062L   22096.87069749  .00012426  00000-0  85148-3 0  9994","PERIOD":"95.592","APOAPSIS":"548.309","TIME_SYSTEM":"UTC","OBJECT_NAME":"STARLINK-1727","ECCENTRICITY":"0.00016090","OBJECT_TYPE":"PAYLOAD","EPOCH":"2022-04-06T20:53:48.263136","MEAN_MOTION_DDOT":"0.0000000000000","ARG_OF_PERICENTER":"59.4081","OBJECT_ID":"2020-062L","CLASSIFICATION_TYPE":"U","FILE":"3391320","MEAN_ANOMALY":"300.7066","PERIAPSIS":"546.080","RA_OF_ASC_NODE":"328.7992","INCLINATION":"53.0563"},{"MEAN_MOTION_DDOT":"0.0000000000000","ARG_OF_PERICENTER":"60.7561","EPOCH":"2022-04-06T20:40:32.122560","OBJECT_TYPE":"PAYLOAD","INCLINATION":"53.0527","RA_OF_ASC_NODE":"308.8434","PERIAPSIS":"546.098","MEAN_ANOMALY":"299.3592","FILE":"3391320","CLASSIFICATION_TYPE":"U","OBJECT_ID":"2020-062M","TIME_SYSTEM":"UTC","APOAPSIS":"548.370","PERIOD":"95.593","TLE_LINE1":"1 46336U 20062M   22096.86148290 -.00000040  00000-0  16191-4 0  9996","ECCENTRICITY":"0.00016400","OBJECT_NAME":"STARLINK-1738","RCS_SIZE":"LARGE","MEAN_ELEMENT_THEORY":"SGP4","SITE":"AFETR","EPHEMERIS_TYPE":"0","MEAN_MOTION_DOT":"-0.00000040","BSTAR":"0.00001619100000","REF_FRAME":"TEME","NORAD_CAT_ID":"46336","LAUNCH_DATE":"2020-09-03","CENTER_NAME":"EARTH","TLE_LINE2":"2 46336  53.0527 308.8434 0001640  60.7561 299.3592 15.06393319 88625","ELEMENT_SET_NO":"999","MEAN_MOTION":"15.06393319","REV_AT_EPOCH":"8862","GP_ID":"200623105","SEMIMAJOR_AXIS":"6925.369","DECAY_DATE":null,"COUNTRY_CODE":"US"}];
